OBJECT_NAME,OBJECT_ID,EPOCH,MEAN_MOTION,ECCENTRICITY,INCLINATION,RA_OF_ASC_NODE,ARG_OF_PERICENTER,MEAN_ANOMALY,EPHEMERIS_TYPE,CLASSIFICATION_TYPE,NORAD_CAT_ID,ELEMENT_SET_NO,REV_AT_EPOCH,BSTAR,MEAN_MOTION_DOT,MEAN_MOTION_DDOT
SL-16 R/B,1994-077B,2026-06-13T22:34:50.100096,14.15571744,.00027886,70.9807,149.9920,330.1648,29.9315,0,U,23405,999,62985,-.19293231E-4,-.86E-6,0
ARIANE 40+ R/B,1995-021B,2026-06-13T22:46:12.986688,14.39831676,.00062258,98.4411,235.0703,203.6794,329.2804,0,U,23561,999,63309,.88262534E-4,.234E-5,0
SL-16 R/B,1995-058B,2026-06-13T21:09:50.194080,14.15506507,.00136001,71.0217,338.2983,325.0234,34.9994,0,U,23705,999,58146,.13745094E-3,.221E-5,0
SL-16 R/B,1996-051B,2026-06-13T21:58:01.545888,14.12444793,.00151919,70.7639,331.5734,341.7968,18.2606,0,U,24298,999,53523,.86390067E-4,.11E-5,0
ORBVIEW 2 (SEASTAR),1997-037A,2026-06-13T21:12:15.105888,14.35551898,.00031176,98.8684,331.8111,122.6156,237.5330,0,U,24883,999,52227,.84365891E-4,.196E-5,0
SL-16 R/B,1998-043G,2026-06-13T20:30:55.044000,14.26068117,.00109269,98.8363,118.9854,94.9944,265.2483,0,U,25400,999,45269,.31807674E-4,.31E-6,0
SL-16 R/B,1998-045B,2026-06-13T21:59:17.855232,14.16204336,.00094925,71.0120,339.2090,245.7055,114.3077,0,U,25407,999,44072,-.81770013E-4,-.21E-5,0
ISS (ZARYA),1998-067A,2026-06-13T20:02:44.241792,15.49214103,.00049552,51.6333,316.6832,182.4672,177.6293,0,U,25544,999,57123,.16533763E-3,.8738E-4,0
CZ-4B R/B,1999-025C,2026-06-13T23:09:35.898912,14.18282915,.00381776,98.6484,206.8845,68.6711,0.4578,0,U,25732,999,40181,.43971816E-4,.49E-6,0
OKEAN-O,1999-039A,2026-06-13T21:36:50.816160,14.80463525,.00017029,97.9317,223.7360,74.5035,285.6365,0,U,25860,999,44862,.77284017E-4,.539E-5,0
SL-16 R/B,1999-039B,2026-06-13T22:12:36.464256,14.81842315,.00136292,97.9839,223.7977,308.4929,51.5061,0,U,25861,999,45111,.63238886E-4,.446E-5,0
DELTA 2 R/B,1999-041E,2026-06-13T13:34:30.495936,14.12010444,.0500866,51.7659,278.2635,271.3092,83.0531,0,U,25876,999,37657,.16702E-3,.803E-5,0
HELIOS 1B,1999-064A,2026-06-13T17:58:45.004800,14.87998726,.00024789,98.1619,69.7894,95.6945,264.4553,0,U,25977,999,69954,.1535483E-3,.1351E-4,0
TERRA,1999-068A,2026-06-13T22:23:53.268288,14.61100771,.0001328,97.9457,214.6084,201.6119,206.0690,0,U,25994,999,40913,.8192911E-4,.358E-5,0
SL-16 R/B,2000-006B,2026-06-13T16:10:29.543520,14.15834650,.00153331,71.0024,256.0126,28.4887,331.7071,0,U,26070,999,36214,-.85747045E-4,-.217E-5,0
TITAN 4B R/B,2000-047B,2026-06-13T22:44:17.928672,15.10180897,.00456369,67.9877,129.6921,290.5618,69.0638,0,U,26474,999,40744,.20046468E-3,.3222E-4,0
ENVISAT,2002-009A,2026-06-13T20:10:48.861120,14.39064100,.00013304,98.3833,116.2338,89.2256,324.9263,0,U,27386,999,27300,.34874967E-4,.65E-6,0
IDEFIX & ARIANE 42P R/B,2002-021B,2026-06-13T20:14:35.120256,14.31080719,.00105792,98.5943,102.3628,264.9216,95.0759,0,U,27422,999,25777,.85748757E-4,.182E-5,0
AQUA,2002-022A,2026-06-13T23:18:08.150688,14.62153890,.00012255,98.4276,134.1895,53.5688,347.7452,0,U,27424,999,28280,.15468027E-3,.729E-5,0
CZ-4B R/B,2002-024C,2026-06-13T22:30:26.432352,14.14563794,.0051163,98.8701,217.7791,109.2585,63.3525,0,U,27432,999,24284,.44299548E-4,.42E-6,0
MIDORI II (ADEOS-II),2002-056A,2026-06-13T20:21:06.233184,14.29348014,.00022083,98.7877,124.0794,81.2933,278.8499,0,U,27597,999,22403,.1066395E-3,.226E-5,0
H-2A R/B,2002-056E,2026-06-13T22:29:54.548160,14.33820806,.00690588,98.3311,121.7304,234.3836,166.6708,0,U,27601,999,22790,.70660578E-4,.16E-5,0
CZ-4B R/B,2003-049C,2026-06-13T22:20:01.781952,14.55098238,.00470553,98.6896,163.6474,298.7813,60.8661,0,U,28059,999,20059,.73834165E-4,.271E-5,0
CZ-2C R/B,2004-012C,2026-06-13T20:44:18.462048,15.78382930,.00090418,97.7089,240.1417,298.2769,61.7584,0,U,28222,999,21937,.61085894E-3,.106264E-2,0
SL-16 R/B,2004-021B,2026-06-13T21:48:17.074080,14.14609813,.00073934,71.0013,30.5709,258.5043,101.5249,0,U,28353,999,13644,-.11812533E-3,-.275E-5,0
CZ-4B R/B,2004-035C,2026-06-13T16:01:29.618688,15.30579413,.00303049,97.3368,197.7806,350.8415,9.2270,0,U,28415,999,19458,.2671111E-3,.793E-4,0
CZ-2C R/B,2004-046B,2026-06-13T18:08:19.204512,14.27025844,.01383291,98.1948,73.7509,230.4839,128.4048,0,U,28480,999,12220,.3888248E-4,.63E-6,0
ARIANE 5 R/B,2004-049H,2026-06-13T21:31:37.483968,14.85445208,.00847207,98.2718,337.0230,40.0005,320.7408,0,U,28499,999,16007,.74596229E-4,.621E-5,0
CZ-2D R/B,2005-024B,2026-06-13T18:37:41.847456,15.69205166,.00039442,97.3480,184.0345,61.3397,298.8261,0,U,28738,999,15480,.51120965E-3,.59585E-3,0
ALOS (DAICHI),2006-002A,2026-06-13T21:23:39.263424,14.70044396,.00015785,98.1323,120.4691,58.4799,301.6560,0,U,28931,999,8761,.17224979E-3,.984E-5,0
