SL-16 R/B               
1 23405U 94077B   26164.94085764 -.00000086  00000+0 -19293-4 0  9996
2 23405  70.9807 149.9920 0002788 330.1648  29.9315 14.15571744629859
ARIANE 40+ R/B          
1 23561U 95021B   26164.94876142  .00000234  00000+0  88263-4 0  9993
2 23561  98.4411 235.0703 0006225 203.6794 329.2804 14.39831676633099
SL-16 R/B               
1 23705U 95058B   26164.88183095  .00000221  00000+0  13745-3 0  9992
2 23705  71.0217 338.2983 0013600 325.0234  34.9994 14.15506507581468
SL-16 R/B               
1 24298U 96051B   26164.91529567  .00000110  00000+0  86390-4 0  9990
2 24298  70.7639 331.5734 0015191 341.7968  18.2606 14.12444793535230
ORBVIEW 2 (SEASTAR)     
1 24883U 97037A   26164.88350817  .00000196  00000+0  84366-4 0  9996
2 24883  98.8684 331.8111 0003117 122.6156 237.5330 14.35551898522273
SL-16 R/B               
1 25400U 98043G   26164.85480375  .00000031  00000+0  31808-4 0  9991
2 25400  98.8363 118.9854 0010926  94.9944 265.2483 14.26068117452695
SL-16 R/B               
1 25407U 98045B   26164.91617888 -.00000210  00000+0 -81770-4 0  9992
2 25407  71.0120 339.2090 0009492 245.7055 114.3077 14.16204336440729
ISS (ZARYA)             
1 25544U 98067A   26164.83523428  .00008738  00000+0  16534-3 0  9991
2 25544  51.6333 316.6832 0004955 182.4672 177.6293 15.49214103571238
CZ-4B R/B               
1 25732U 99025C   26164.96499883  .00000049  00000+0  43972-4 0  9990
2 25732  98.6484 206.8845 0038177  68.6711   0.4578 14.18282915401817
OKEAN-O                 
1 25860U 99039A   26164.90058815  .00000539  00000+0  77284-4 0  9994
2 25860  97.9317 223.7360 0001702  74.5035 285.6365 14.80463525448623
SL-16 R/B               
1 25861U 99039B   26164.92542204  .00000446  00000+0  63239-4 0  9999
2 25861  97.9839 223.7977 0013629 308.4929  51.5061 14.81842315451119
DELTA 2 R/B             
1 25876U 99041E   26164.56563074  .00000803  00000+0  16702-3 0  9995
2 25876  51.7659 278.2635 0500866 271.3092  83.0531 14.12010444376574
HELIOS 1B               
1 25977U 99064A   26164.74913200  .00001351  00000+0  15355-3 0  9994
2 25977  98.1619  69.7894 0002478  95.6945 264.4553 14.87998726699541
TERRA                   
1 25994U 99068A   26164.93325542  .00000358  00000+0  81929-4 0  9991
2 25994  97.9457 214.6084 0001328 201.6119 206.0690 14.61100771409139
SL-16 R/B               
1 26070U 00006B   26164.67395305 -.00000217  00000+0 -85747-4 0  9994
2 26070  71.0024 256.0126 0015333  28.4887 331.7071 14.15834650362140
TITAN 4B R/B            
1 26474U 00047B   26164.94742973  .00003222  00000+0  20046-3 0  9991
2 26474  67.9877 129.6921 0045636 290.5618  69.0638 15.10180897407445
ENVISAT                 
1 27386U 02009A   26164.84084330  .00000065  00000+0  34875-4 0  9997
2 27386  98.3833 116.2338 0001330  89.2256 324.9263 14.39064100273004
IDEFIX & ARIANE 42P R/B 
1 27422U 02021B   26164.84346204  .00000182  00000+0  85749-4 0  9999
2 27422  98.5943 102.3628 0010579 264.9216  95.0759 14.31080719257778
AQUA                    
1 27424U 02022A   26164.97092767  .00000729  00000+0  15468-3 0  9995
2 27424  98.4276 134.1895 0001225  53.5688 347.7452 14.62153890282804
CZ-4B R/B               
1 27432U 02024C   26164.93780593  .00000042  00000+0  44300-4 0  9999
2 27432  98.8701 217.7791 0051163 109.2585  63.3525 14.14563794242841
MIDORI II (ADEOS-II)    
1 27597U 02056A   26164.84798881  .00000226  00000+0  10664-3 0  9994
2 27597  98.7877 124.0794 0002208  81.2933 278.8499 14.29348014224037
H-2A R/B                
1 27601U 02056E   26164.93743690  .00000160  00000+0  70661-4 0  9999
2 27601  98.3311 121.7304 0069058 234.3836 166.6708 14.33820806227907
CZ-4B R/B               
1 28059U 03049C   26164.93057618  .00000271  00000+0  73834-4 0  9996
2 28059  98.6896 163.6474 0047055 298.7813  60.8661 14.55098238200590
CZ-2C R/B               
1 28222U 04012C   26164.86410257  .00106264  00000+0  61086-3 0  9997
2 28222  97.7089 240.1417 0009041 298.2769  61.7584 15.78382930219373
SL-16 R/B               
1 28353U 04021B   26164.90853095 -.00000275  00000+0 -11813-3 0  9998
2 28353  71.0013  30.5709 0007393 258.5043 101.5249 14.14609813136445
CZ-4B R/B               
1 28415U 04035C   26164.66770392  .00007930  00000+0  26711-3 0  9999
2 28415  97.3368 197.7806 0030304 350.8415   9.2270 15.30579413194587
CZ-2C R/B               
1 28480U 04046B   26164.75577783  .00000063  00000+0  38882-4 0  9995
2 28480  98.1948  73.7509 0138329 230.4839 128.4048 14.27025844122200
ARIANE 5 R/B            
1 28499U 04049H   26164.89696162  .00000621  00000+0  74596-4 0  9998
2 28499  98.2718 337.0230 0084720  40.0005 320.7408 14.85445208160076
CZ-2D R/B               
1 28738U 05024B   26164.77617879  .00059585  00000+0  51121-3 0  9994
2 28738  97.3480 184.0345 0003944  61.3397 298.8261 15.69205166154800
ALOS (DAICHI)           
1 28931U 06002A   26164.89142666  .00000984  00000+0  17225-3 0  9992
2 28931  98.1323 120.4691 0001578  58.4799 301.6560 14.70044396 87618
